{
  "type": "FeatureCollection",
  "features": [
    {
      "type": "Feature",
      "properties": {
        "norad_id": 34446,
        "name": "COSMOS 2251 DEB",
        "group": "cosmos-2251-debris",
        "lat": 70.79933764924309,
        "lon": 153.61176420987144,
        "alt_km": 703.7712068255569,
        "timestamp": "2025-12-27T21:25:02.911182+00:00",
        "meta_object_name": "COSMOS 2251 DEB",
        "meta_object_id": "1993-036SP",
        "meta_epoch": "2025-12-27T11:00:47.581920",
        "meta_mean_motion": 14.4936839,
        "meta_eccentricity": 0.0050418,
        "meta_inclination": 74.0414,
        "meta_ra_of_asc_node": 29.678,
        "meta_arg_of_pericenter": 164.1042,
        "meta_mean_anomaly": 196.1715,
        "meta_ephemeris_type": 0,
        "meta_classification_type": "U",
        "meta_norad_cat_id": 34446,
        "meta_element_set_no": 999,
        "meta_rev_at_epoch": 88907,
        "meta_bstar": 0.00013137,
        "meta_mean_motion_dot": 4.82e-06,
        "meta_mean_motion_ddot": 0,
        "tle_line1": "1 34446U 93036SP  25361.45888405  .00000482  00000+0  13137-3 0  9992",
        "tle_line2": "2 34446  74.0414  29.6780 0050418 164.1042 196.1715 14.49368390889070"
      },
      "geometry": {
        "type": "Point",
        "coordinates": [
          153.61176420987144,
          70.79933764924309
        ]
      }
    },
    {
      "type": "Feature",
      "properties": {
        "norad_id": 34449,
        "name": "COSMOS 2251 DEB",
        "group": "cosmos-2251-debris",
        "lat": -48.48668413889098,
        "lon": -121.14671879628624,
        "alt_km": 601.3466681010859,
        "timestamp": "2025-12-27T21:25:02.911193+00:00",
        "meta_object_name": "COSMOS 2251 DEB",
        "meta_object_id": "1993-036SS",
        "meta_epoch": "2025-12-26T12:50:59.003232",
        "meta_mean_motion": 14.95603421,
        "meta_eccentricity": 0.0022706,
        "meta_inclination": 74.0324,
        "meta_ra_of_asc_node": 42.7181,
        "meta_arg_of_pericenter": 76.9534,
        "meta_mean_anomaly": 50.6798,
        "meta_ephemeris_type": 0,
        "meta_classification_type": "U",
        "meta_norad_cat_id": 34449,
        "meta_element_set_no": 999,
        "meta_rev_at_epoch": 88899,
        "meta_bstar": 0.002431,
        "meta_mean_motion_dot": 0.00027206,
        "meta_mean_motion_ddot": 0,
        "tle_line1": "1 34449U 93036SS  25360.53540513  .00027206  00000+0  24310-2 0  9995",
        "tle_line2": "2 34449  74.0324  42.7181 0022706  76.9534  50.6798 14.95603421888992"
      },
      "geometry": {
        "type": "Point",
        "coordinates": [
          -121.14671879628624,
          -48.48668413889098
        ]
      }
    },
    {
      "type": "Feature",
      "properties": {
        "norad_id": 34451,
        "name": "COSMOS 2251 DEB",
        "group": "cosmos-2251-debris",
        "lat": -57.35876052898687,
        "lon": -96.19016826144258,
        "alt_km": 601.1180562304417,
        "timestamp": "2025-12-27T21:25:02.911203+00:00",
        "meta_object_name": "COSMOS 2251 DEB",
        "meta_object_id": "1993-036SU",
        "meta_epoch": "2025-12-27T05:54:15.397920",
        "meta_mean_motion": 14.96406014,
        "meta_eccentricity": 0.002389,
        "meta_inclination": 74.0458,
        "meta_ra_of_asc_node": 58.5881,
        "meta_arg_of_pericenter": 69.5037,
        "meta_mean_anomaly": 290.8709,
        "meta_ephemeris_type": 0,
        "meta_classification_type": "U",
        "meta_norad_cat_id": 34451,
        "meta_element_set_no": 999,
        "meta_rev_at_epoch": 88852,
        "meta_bstar": 0.0028656,
        "meta_mean_motion_dot": 0.00032787,
        "meta_mean_motion_ddot": 0,
        "tle_line1": "1 34451U 93036SU  25361.24601155  .00032787  00000+0  28656-2 0  9994",
        "tle_line2": "2 34451  74.0458  58.5881 0023890  69.5037 290.8709 14.96406014888525"
      },
      "geometry": {
        "type": "Point",
        "coordinates": [
          -96.19016826144258,
          -57.35876052898687
        ]
      }
    },
    {
      "type": "Feature",
      "properties": {
        "norad_id": 34452,
        "name": "COSMOS 2251 DEB",
        "group": "cosmos-2251-debris",
        "lat": 59.577478708577544,
        "lon": -57.73813401033307,
        "alt_km": 537.0058996887383,
        "timestamp": "2025-12-27T21:25:02.911214+00:00",
        "meta_object_name": "COSMOS 2251 DEB",
        "meta_object_id": "1993-036SV",
        "meta_epoch": "2025-12-27T09:55:11.436384",
        "meta_mean_motion": 15.1212038,
        "meta_eccentricity": 0.0063713,
        "meta_inclination": 74.0315,
        "meta_ra_of_asc_node": 152.4388,
        "meta_arg_of_pericenter": 225.4442,
        "meta_mean_anomaly": 164.6763,
        "meta_ephemeris_type": 0,
        "meta_classification_type": "U",
        "meta_norad_cat_id": 34452,
        "meta_element_set_no": 999,
        "meta_rev_at_epoch": 90884,
        "meta_bstar": 0.0011018,
        "meta_mean_motion_dot": 0.00019955,
        "meta_mean_motion_ddot": 0,
        "tle_line1": "1 34452U 93036SV  25361.41332681  .00019955  00000+0  11018-2 0  9995",
        "tle_line2": "2 34452  74.0315 152.4388 0063713 225.4442 164.6763 15.12120380908849"
      },
      "geometry": {
        "type": "Point",
        "coordinates": [
          -57.73813401033307,
          59.577478708577544
        ]
      }
    },
    {
      "type": "Feature",
      "properties": {
        "norad_id": 34454,
        "name": "COSMOS 2251 DEB",
        "group": "cosmos-2251-debris",
        "lat": 48.207543702911494,
        "lon": 51.08322404255028,
        "alt_km": 783.4112109142397,
        "timestamp": "2025-12-27T21:25:02.911225+00:00",
        "meta_object_name": "COSMOS 2251 DEB",
        "meta_object_id": "1993-036SX",
        "meta_epoch": "2025-12-27T02:27:45.241344",
        "meta_mean_motion": 14.38830581,
        "meta_eccentricity": 0.00360198,
        "meta_inclination": 74.0581,
        "meta_ra_of_asc_node": 251.1864,
        "meta_arg_of_pericenter": 310.9053,
        "meta_mean_anomaly": 48.8983,
        "meta_ephemeris_type": 0,
        "meta_classification_type": "U",
        "meta_norad_cat_id": 34454,
        "meta_element_set_no": 999,
        "meta_rev_at_epoch": 88274,
        "meta_bstar": 0.00024553519,
        "meta_mean_motion_dot": 7.34e-06,
        "meta_mean_motion_ddot": 0,
        "tle_line1": "1 34454U 93036SX  25361.10260696  .00000734  00000+0  24554-3 0  9994",
        "tle_line2": "2 34454  74.0581 251.1864 0036019 310.9053  48.8983 14.38830581882744"
      },
      "geometry": {
        "type": "Point",
        "coordinates": [
          51.08322404255028,
          48.207543702911494
        ]
      }
    },
    {
      "type": "Feature",
      "properties": {
        "norad_id": 34459,
        "name": "COSMOS 2251 DEB",
        "group": "cosmos-2251-debris",
        "lat": -16.660365933355752,
        "lon": 52.7601652450472,
        "alt_km": 910.7176782058823,
        "timestamp": "2025-12-27T21:25:02.911235+00:00",
        "meta_object_name": "COSMOS 2251 DEB",
        "meta_object_id": "1993-036TC",
        "meta_epoch": "2025-12-26T08:27:30.265632",
        "meta_mean_motion": 14.005194,
        "meta_eccentricity": 0.0192136,
        "meta_inclination": 74.0778,
        "meta_ra_of_asc_node": 230.5206,
        "meta_arg_of_pericenter": 297.2174,
        "meta_mean_anomaly": 60.9494,
        "meta_ephemeris_type": 0,
        "meta_classification_type": "U",
        "meta_norad_cat_id": 34459,
        "meta_element_set_no": 999,
        "meta_rev_at_epoch": 85902,
        "meta_bstar": 0.00034258,
        "meta_mean_motion_dot": 5.72e-06,
        "meta_mean_motion_ddot": 0,
        "tle_line1": "1 34459U 93036TC  25360.35243363  .00000572  00000+0  34258-3 0  9999",
        "tle_line2": "2 34459  74.0778 230.5206 0192136 297.2174  60.9494 14.00519400859022"
      },
      "geometry": {
        "type": "Point",
        "coordinates": [
          52.7601652450472,
          -16.660365933355752
        ]
      }
    },
    {
      "type": "Feature",
      "properties": {
        "norad_id": 34464,
        "name": "COSMOS 2251 DEB",
        "group": "cosmos-2251-debris",
        "lat": 73.56688762815624,
        "lon": 149.2201273758923,
        "alt_km": 476.8929715211334,
        "timestamp": "2025-12-27T21:25:02.911246+00:00",
        "meta_object_name": "COSMOS 2251 DEB",
        "meta_object_id": "1993-036TH",
        "meta_epoch": "2025-12-27T10:01:03.881856",
        "meta_mean_motion": 15.29201701,
        "meta_eccentricity": 0.0013118,
        "meta_inclination": 73.9892,
        "meta_ra_of_asc_node": 47.0322,
        "meta_arg_of_pericenter": 229.5183,
        "meta_mean_anomaly": 130.4877,
        "meta_ephemeris_type": 0,
        "meta_classification_type": "U",
        "meta_norad_cat_id": 34464,
        "meta_element_set_no": 999,
        "meta_rev_at_epoch": 90064,
        "meta_bstar": 0.0027905,
        "meta_mean_motion_dot": 0.00080113,
        "meta_mean_motion_ddot": 0,
        "tle_line1": "1 34464U 93036TH  25361.41740604  .00080113  00000+0  27905-2 0  9992",
        "tle_line2": "2 34464  73.9892  47.0322 0013118 229.5183 130.4877 15.29201701900640"
      },
      "geometry": {
        "type": "Point",
        "coordinates": [
          149.2201273758923,
          73.56688762815624
        ]
      }
    }
  ]
}